SCD 1                   
1 22490U 93009B   24153.21041701  .00000512  00000+0  90761-4 0  9993
2 22490  24.9683 131.1050 0042572 166.2687 301.2389 14.45288671653442
TECHSAT 1B (GO-32)      
1 25397U 98043D   24153.49873690  .00000140  00000+0  80956-4 0  9997
2 25397  98.9207 119.9882 0001243 153.5352 206.5890 14.24049897345409
SCD 2                   
1 25504U 98060A   24152.92769743  .00000551  00000+0  10447-3 0  9999
2 25504  24.9966 352.1674 0017091 159.9259 339.3903 14.44773005352252
LANDSAT 7               
1 25682U 99020A   24153.55100941  .00000646  00000+0  14163-3 0  9996
2 25682  97.8882 181.0775 0001743  83.5984  68.6973 14.60674368336914
DLR-TUBSAT              
1 25757U 99029B   24153.45212641  .00000207  00000+0  62968-4 0  9998
2 25757  98.5851 117.0241 0015565  98.4742 261.8218 14.51903617325113
TERRA                   
1 25994U 99068A   24153.53703788  .00000682  00000+0  15209-3 0  9992
2 25994  98.0486 217.4839 0003185  70.8664  33.1274 14.59786043300884
MAROC-TUBSAT            
1 27004U 01056D   24153.06305844  .00000003  00000+0  55767-4 0  9996
2 27004  99.7315 307.3670 0019049 254.8606 225.3828 13.70205333124003
AQUA                    
1 27424U 02022A   24153.54065543  .00001293  00000+0  28339-3 0  9994
2 27424  98.3299 102.8521 0001834 106.1767 343.5042 14.59332128174432
IRS-P6 (RESOURCESAT-1)  
1 28051U 03046A   24153.48297638  .00000398  00000+0  14898-3 0  9993
2 28051  98.2945 211.3698 0065839  56.9585   0.3148 14.35470256 73546
SHIYAN 1 (SY-1)         
1 28220U 04012A   24153.04007245  .00008465  00000+0  50387-3 0  9996
2 28220  97.9655 180.1208 0011018  89.1833 271.0658 15.11447455 97732
AURA                    
1 28376U 04026A   24152.90689205  .00001325  00000+0  29448-3 0  9991
2 28376  98.2505  97.8566 0002159  95.3579 264.7867 14.58618828 57309
IRS-P5 (CARTOSAT-1)     
1 28649U 05017A   24153.12978185  .00001987  00000+0  22793-3 0  9998
2 28649  97.6148 197.2213 0002201  62.4158 297.7282 14.86938525 32847
SINAH 1                 
1 28893U 05043D   24152.91495775  .00000660  00000+0  13863-3 0  9998
2 28893  98.1922 276.8641 0016118  93.9514 266.3531 14.62733421991351
EROS B                  
1 29079U 06014A   24153.55135422  .00016057  00000+0  81460-3 0  9990
2 29079  97.3331 268.3619 0010191 258.2931 101.7159 15.16964544  5163
RESURS-DK 1             
1 29228U 06021A   24153.29201399  .00003364  00000+0  22978-3 0  9998
2 29228  69.9344 102.5160 0003216 351.1042   9.0064 15.07181142989952
ARIRANG-2 (KOMPSAT-2)   
1 29268U 06031A   24153.52992653  .00000447  00000+0  94622-4 0  9994
2 29268  97.8655   2.5468 0013304 278.6223 137.7048 14.63568146952454
LAPAN-TUBSAT            
1 29709U 07001A   24153.50062458  .00000946  00000+0  12019-3 0  9994
2 29709  98.0677 128.5333 0014045  91.9518 268.3305 14.83985194940482
HAIYANG-1B              
1 31113U 07010A   24152.94008800  .00000170  00000+0  80709-4 0  9995
2 31113  98.2945 155.7127 0012367 253.0648 106.9180 14.30608132893916
COSMO-SKYMED 1          
1 31598U 07023A   24153.47350433  .00000776  00000+0  10400-3 0  9999
2 31598  97.8867 336.8498 0001520  88.6390 271.4998 14.82155231918860
TERRASAR-X              
1 31698U 07026A   24152.57486494  .00002396  00000+0  11723-3 0  9999
2 31698  97.4450 159.9612 0001789  88.0064 272.1376 15.19152314940533
WORLDVIEW-1 (WV-1)      
1 32060U 07041A   24153.19201470  .00009634  00000+0  40141-3 0  9996
2 32060  97.3785 272.7800 0005805 351.8877   8.2265 15.23906922929377
YAOGAN-3                
1 32289U 07055A   24153.51300367  .00002669  00000+0  31836-3 0  9997
2 32289  97.8880 178.9682 0001584  81.9564 278.1830 14.85106966895005
COSMO-SKYMED 2          
1 32376U 07059A   24153.50726915  .00000948  00000+0  12564-3 0  9993
2 32376  97.8864 336.8800 0001491  90.7335 269.4049 14.82155165891623
RADARSAT-2              
1 32382U 07061A   24153.49834987  .00000117  00000+0  62341-4 0  9997
2 32382  98.5772 160.0961 0001266  90.7342 269.3985 14.29984315859494
CARTOSAT-2A             
1 32783U 08021A   24153.47624571  .00001243  00000+0  17616-3 0  9998
2 32783  97.8666 212.2615 0012126  18.3193 341.8453 14.78733484868686
HUANJING 1A (HJ-1A)     
1 33320U 08041A   24153.54525587  .00002035  00000+0  27519-3 0  9996
2 33320  97.6310 161.3318 0021844  64.8061 295.5414 14.79886519848048
HUANJING 1B (HJ-1B)     
1 33321U 08041B   24153.55255743  .00001504  00000+0  20181-3 0  9990
2 33321  97.6264 165.8785 0040001 106.6337 253.9274 14.80201907848069
GEOEYE 1                
1 33331U 08042A   24153.46005884  .00000805  00000+0  16055-3 0  9999
2 33331  98.1098 226.0318 0006317 205.4363 154.6530 14.64565280841011
THEOS                   
1 33396U 08049A   24153.45131317  .00000098  00000+0  66476-4 0  9994
2 33396  98.6580 219.6593 0001153  89.0667 271.0642 14.20075833812144
COSMO-SKYMED 3          
1 33412U 08054A   24153.52215966  .00003383  00000+0  29520-3 0  9998
2 33412  97.8779 350.1300 0015023 266.6607  93.2896 14.97447356844944
YAOGAN-4                
1 33446U 08061A   24153.26880258  .00000592  00000+0  85493-4 0  9997
2 33446  97.8794  85.4501 0014669 343.2936  16.7790 14.79765073835202
GOSAT (IBUKI)           
1 33492U 09002A   24152.89118376  .00001260  00000+0  23038-3 0  9996
2 33492  98.0368 264.6980 0001126  96.7445 263.3888 14.67567962822000
YAOGAN-6                
1 34839U 09021A   24153.53104189  .00016961  00000+0  32984-3 0  9996
2 34839  97.1695 121.1524 0015462 229.6238 130.3664 15.47531876841038
DEIMOS-1                
1 35681U 09041A   24153.50707228  .00000821  00000+0  13418-3 0  9993
2 35681  97.6800 336.2714 0002857  84.3222 275.8313 14.73303667797006
DUBAISAT-1              
1 35682U 09041B   24153.36640196  .00001391  00000+0  23165-3 0  9991
2 35682  97.9047 290.0712 0010119 308.5372  51.4927 14.71541091795319
OCEANSAT-2              
1 35931U 09051A   24153.55780063  .00000222  00000+0  17787-3 0  9993
2 35931  98.2643 203.8462 0016760 174.6065 185.5285 13.99462011775031
WORLDVIEW-2 (WV-2)      
1 35946U 09055A   24153.46024152  .00000211  00000+0  86242-4 0  9994
2 35946  98.4362 226.5701 0002881 285.5539  74.5329 14.36800909768630
SMOS                    
1 36036U 09059A   24152.93881794  .00000513  00000+0  17753-3 0  9998
2 36036  98.4432 340.1230 0001255  83.7446 276.3885 14.39784199766078
YAOGAN-7                
1 36110U 09069A   24153.55320191  .00000696  00000+0  10792-3 0  9998
2 36110  98.1077  29.3349 0024040 279.0795  80.7694 14.76226657779580
TANDEM-X                
1 36605U 10030A   24152.57486344  .00001962  00000+0  96595-4 0  9994
2 36605  97.4456 159.9621 0001845  95.6029 264.5416 15.19152315773287
CARTOSAT-2B             
1 36795U 10035A   24153.44524312  .00000819  00000+0  11832-3 0  9994
2 36795  97.8607 211.8810 0013704  91.3505 268.9276 14.78734754749727
YAOGAN-10               
1 36834U 10038A   24153.55422649  .00000996  00000+0  12969-3 0  9991
2 36834  97.9485 170.7780 0001596  84.6583  67.5804 14.82804606746683
COSMO-SKYMED 4          
1 37216U 10060A   24153.51991925  .00000728  00000+0  97999-4 0  9995
2 37216  97.8867 336.8962 0001480  86.8173 273.3210 14.82157426734179
RESOURCESAT-2           
1 37387U 11015A   24153.46770174  .00000232  00000+0  12490-3 0  9992
2 37387  98.5774 219.6660 0004976 149.1834 210.9637 14.21686161680756
HAIYANG-2A              
1 37781U 11043A   24153.52112823  .00000025  00000+0  68080-4 0  9996
2 37781  99.3251 157.2683 0001620 102.4335 257.6998 13.78783046644171
RASAT                   
1 37791U 11044D   24153.55556896  .00000835  00000+0  15953-3 0  9992
2 37791  98.0776 245.2839 0021996  36.6062  21.2889 14.66330929683852
SRMSAT                  
1 37841U 11058D   24153.42034255  .00000503  00000+0  13040-3 0  9996
2 37841  19.9717 252.1497 0011650 281.8995 144.9494 14.11118434652550
YAOGAN-13               
1 37941U 11072A   24153.55268624  .00024127  00000+0  54564-3 0  9990
2 37941  97.7181 136.3384 0004050  86.7693 273.4017 15.43151104694069
PLEIADES 1A             
1 38012U 11076F   24153.50769800 -.00000021  00000+0  53410-5 0  9990
2 38012  98.2040 228.1862 0001064  84.8180  45.2200 14.58519238663305
ZIYUAN 1-02C (ZY 1-02C) 
1 38038U 11079A   24153.49013520  .00000663  00000+0  23913-3 0  9994
2 38038  98.4980 222.0679 0006897  25.3436 104.6988 14.36818717652110
ZIYUAN 3-1 (ZY 3-1)     
1 38046U 12001A   24153.49544170  .00013128  00000+0  43444-3 0  9990
2 38046  97.2474 215.7884 0005231 178.1134 182.0128 15.31438895688536
ARIRANG-3 (KOMPSAT-3)   
1 38338U 12025B   24153.47629994  .00000803  00000+0  16685-3 0  9999
2 38338  98.2615  99.7345 0008893 292.5219  67.5041 14.62785485642446
KANOPUS-V 1             
1 38707U 12039A   24152.83153080  .00024129  00000+0  46099-3 0  9990
2 38707  97.4962  90.7067 0004673 102.1732 258.0042 15.48099379658688
EXACTVIEW-1 (ADS-1B)    
1 38709U 12039C   24153.23057268  .00000212  00000+0  11140-3 0  9994
2 38709  98.9502 244.7893 0011390 156.6749 203.4948 14.24457285616488
SPOT 6                  
1 38755U 12047A   24153.49806070  .00000915  00000+0  20686-3 0  9990
2 38755  98.2228 220.3065 0001175  83.5489 276.5844 14.58508656624387
PLEIADES 1B             
1 39019U 12068A   24153.51735020 -.00000016  00000+0  63995-5 0  9991
2 39019  98.1961 228.2344 0001246  92.1216 268.0126 14.58527081612158
GOKTURK 2               
1 39030U 12073A   24153.54891776  .00000728  00000+0  11830-3 0  9992
2 39030  97.7549  15.1368 0001040 106.4473 253.6850 14.73901579614637
LANDSAT 8               
1 39084U 13008A   24153.47957219  .00000327  00000+0  82629-4 0  9997
2 39084  98.2292 223.2737 0001295  86.2055 273.9291 14.57101172601129
SARAL                   
1 39086U 13009A   24153.15406345  .00000183  00000+0  83612-4 0  9997
2 39086  98.5511 338.4920 0001719  10.9456 349.1764 14.32420766588784
GAOFEN-1                
1 39150U 13018A   24153.54292393  .00001091  00000+0  16376-3 0  9999
2 39150  97.9895 226.0742 0020959 144.6811 215.5792 14.76438897598257
